IRIDIUM 36              
1 24967U 97056C   24189.87632063  .00000696  00000+0  22896-3 0  9994
2 24967  86.3980 317.6062 0002282  90.2589 269.8870 14.36878295402768
IRIDIUM 39              
1 25042U 97069D   24190.50013423  .00000910  00000+0  23903-3 0  9997
2 25042  86.3927 358.4269 0018870  20.1722 340.0223 14.48047429399463
IRIDIUM 38              
1 25043U 97069E   24190.57352108  .00000584  00000+0  18913-3 0  9993
2 25043  86.3959  17.6743 0003440 115.4108 244.7446 14.37325533396842
IRIDIUM 42              
1 25077U 97077A   24189.95471779  .00000574  00000+0  19226-3 0  9992
2 25077  86.3960  23.6793 0002341 103.9133 256.2324 14.35618763391792
IRIDIUM 44              
1 25078U 97077B   24190.55497422  .00000618  00000+0  19202-3 0  9997
2 25078  86.3962   6.2790 0003955  83.8987 276.2662 14.39465169394282
IRIDIUM 45              
1 25104U 97082A   24190.51338181  .00012265  00000+0  66950-3 0  9998
2 25104  86.3720 212.2350 0158972 160.7778 199.9551 15.03908716400310
IRIDIUM 24              
1 25105U 97082B   24190.54736622  .00000590  00000+0  17624-3 0  9996
2 25105  86.3909 225.8302 0013358 126.7764 233.4664 14.41251064393950
IRIDIUM 51              
1 25262U 98018A   24190.55950946  .00019587  00000+0  87182-3 0  9990
2 25262  86.3948 221.9671 0145383 104.1754 257.5687 15.12233643394861
